0 SL-8 R/B
1 16953U 86070B   13282.45170397  .00000131  00000-0  53331-4 0  9384
2 16953 074.0129 236.5102 0011483 052.5547 086.1571 14.36811796418594
0 SL-8 R/B
1 16953U 86070B   13284.04007319  .00000158  00000-0  62375-4 0  9392
2 16953 074.0132 233.5862 0011509 048.9632 022.3229 14.36812235418828
0 SL-8 R/B
1 16953U 86070B   13286.20438057  .00000120  00000-0  49566-4 0  9418
2 16953 074.0136 229.6021 0011582 044.2390 057.4812 14.36813063419138
0 SL-8 R/B
1 16953U 86070B   13287.39466911  .00000164  00000-0  64467-4 0  9425
2 16953 074.0137 227.4110 0011630 041.6744 094.3724 14.36813235419304
0 SL-8 R/B
1 16953U 86070B   13288.50800637  .00000245  00000-0  91890-4 0  9437
2 16953 074.0138 225.3617 0011672 039.2759 093.2263 14.36813857419462
0 SL-8 R/B
1 16953U 86070B   13290.02502958  .00000198  00000-0  75819-4 0  9443
2 16953 074.0139 222.5693 0011727 036.0516 020.1465 14.36814734419685
0 SL-8 R/B
1 16953U 86070B   13291.14766287  .00000211  00000-0  80315-4 0  9458
2 16953 074.0138 220.5031 0011788 033.6645 067.0590 14.36815126419844
0 SL-8 R/B
1 16953U 86070B   13292.19253458  .00000229  00000-0  86554-4 0  9466
2 16953 074.0137 218.5799 0011829 031.4362 071.7517 14.36815493419993
0 SL-8 R/B
1 16953U 86070B   13293.38138942  .00000208  00000-0  79422-4 0  9472
2 16953 074.0136 216.3916 0011878 028.9541 101.1562 14.36816442420167
0 SL-8 R/B
1 16953U 86070B   13294.82891696  .00000197  00000-0  75487-4 0  9489
2 16953 074.0136 213.7273 0011934 025.8033 028.6907 14.36817365420373
0 SL-8 R/B
1 16953U 86070B   13296.16107576  .00000200  00000-0  76572-4 0  9497
2 16953 074.0136 211.2752 0011969 022.8723 079.5018 14.36818071420563
